<?xml version="1.0" encoding="UTF-8"?>
<kml xmlns="http://www.opengis.net/kml/2.2" xmlns:gx="http://www.google.com/kml/ext/2.2" xmlns:kml="http://www.opengis.net/kml/2.2" xmlns:atom="http://www.w3.org/2005/Atom">
<Document>
	<name>teesside_karting.kml</name>
	<StyleMap id="m_ylw-pushpin">
		<Pair>
			<key>normal</key>
			<styleUrl>#s_ylw-pushpin</styleUrl>
		</Pair>
		<Pair>
			<key>highlight</key>
			<styleUrl>#s_ylw-pushpin_hl</styleUrl>
		</Pair>
	</StyleMap>
	<Style id="s_ylw-pushpin">
		<IconStyle>
			<scale>1.1</scale>
			<Icon>
				<href>http://maps.google.com/mapfiles/kml/pushpin/ylw-pushpin.png</href>
			</Icon>
			<hotSpot x="20" y="2" xunits="pixels" yunits="pixels"/>
		</IconStyle>
	</Style>
	<Style id="s_ylw-pushpin_hl">
		<IconStyle>
			<scale>1.3</scale>
			<Icon>
				<href>http://maps.google.com/mapfiles/kml/pushpin/ylw-pushpin.png</href>
			</Icon>
			<hotSpot x="20" y="2" xunits="pixels" yunits="pixels"/>
		</IconStyle>
	</Style>
	<Placemark>
		<name>circuit</name>
		<styleUrl>#m_ylw-pushpin</styleUrl>
		<LineString>
			<tessellate>1</tessellate>
			<coordinates>
				-1.188494163406074,54.57780759802067,0 -1.188682891997299,54.57783661270756,0 -1.18880287086462,54.57788619150427,0 -1.188889706417209,54.57794429638545,0 -1.188962390709903,54.57799755881694,0 -1.189025219971317,54.57802001507532,0 -1.189112512571485,54.57803773160735,0 -1.189237551143002,54.57803128120827,0 -1.189312226959472,54.57800839975894,0 -1.189396569189742,54.57796645975402,0 -1.189455778174467,54.57793597737131,0 -1.18962047821963,54.57788545047592,0 -1.189775517814112,54.57786579644683,0 -1.18999350595523,54.57786860214426,0 -1.19018716520138,54.57787701830621,0 -1.190430685923427,54.57787314607049,0 -1.190537102236908,54.57786569846469,0 -1.190627257235845,54.5778366629828,0 -1.190753788635922,54.5777367604895,0 -1.190874326197864,54.57760200718069,0 -1.191058554578365,54.57737744180061,0 -1.191638896738643,54.57675503113543,0 -1.191816891917279,54.57664615247062,0 -1.192007979217532,54.57663911213386,0 -1.192159787477125,54.57669880128371,0 -1.192339983108811,54.57686611239782,0 -1.192527201664589,54.57711279601939,0 -1.192721916751753,54.5773168527674,0 -1.19289511828408,54.57750098163272,0 -1.192880654854795,54.57757874286094,0 -1.192789220687928,54.57764574023747,0 -1.192640972624912,54.57769265796306,0 -1.192580642358649,54.57775074956788,0 -1.192573389570359,54.57778150991194,0 -1.192610026513089,54.57786412359079,0 -1.192708090495314,54.57789592222964,0 -1.192836153936245,54.57791322604926,0 -1.193109141052807,54.57791266021941,0 -1.193297778263029,54.57790036026262,0 -1.193444394930346,54.57793893028143,0 -1.193515566551453,54.57805436479035,0 -1.193485978981169,54.57814751030407,0 -1.193345550775385,54.57824494991232,0 -1.193218457492348,54.57829526215725,0 -1.19302759065839,54.57834639377411,0 -1.192671220490674,54.57837747403362,0 -1.192345609144548,54.57838790184083,0 -1.191731761818808,54.57846614217192,0 -1.191211396791121,54.57849872320882,0 -1.19073238499768,54.57847384298483,0 -1.190171697754087,54.57844242244725,0 -1.189748651615756,54.57842202762416,0 -1.189480591912452,54.57841309133693,0 -1.189378939126943,54.5783976769409,0 -1.189303576073925,54.57835601849755,0 -1.189248010522784,54.57830661252969,0 -1.189224545928567,54.57826466990173,0 -1.189156137883058,54.57822703367633,0 -1.18906881795483,54.57820550572644,0 -1.188960321368345,54.57820890833341,0 -1.188860589772274,54.5782110402809,0 -1.18877961104494,54.57820538729384,0 -1.188731312877904,54.57816996830549,0 -1.188700681581455,54.57812482854843,0 -1.188664731443898,54.57806279183991,0 -1.188587694174974,54.57802274378679,0 -1.188335103273759,54.57798544599105,0 -1.187963825633697,54.57795291519951,0 -1.187877255889174,54.57795917559319,0 -1.187817743587327,54.57798755163056,0 -1.187773557742794,54.57803456304344,0 -1.187777868241732,54.57810258398948,0 -1.18781038809743,54.57815542898881,0 -1.187895515151106,54.57818399887903,0 -1.187993575787347,54.578193014581,0 -1.188299092597438,54.57820082889866,0 -1.188425578306664,54.57822091668305,0 -1.188516552602191,54.57826967733635,0 -1.188521087779615,54.57835382525779,0 -1.188454063587079,54.57840608144571,0 -1.188341895771273,54.57842483326851,0 -1.188048866698027,54.57841473587686,0 -1.187616100215637,54.57839386091866,0 -1.187238187784209,54.57836031099925,0 -1.186795984255524,54.57832931364959,0 -1.186347193465603,54.57829750310633,0 -1.186035690224472,54.57826479511685,0 -1.185888122748203,54.57821035067395,0 -1.185769972055883,54.57814141085127,0 -1.185689700697813,54.57803972284179,0 -1.185651589583079,54.57791795906169,0 -1.185687948680911,54.57778838613274,0 -1.185791398639501,54.57768806235602,0 -1.185907393286159,54.57762306901223,0 -1.186071336140491,54.57757424477418,0 -1.186350663286344,54.57754649671604,0 -1.186618984236223,54.57757623549552,0 -1.186832286001134,54.57760217131352,0 -1.186969698111574,54.5776325358122,0 -1.187042854600551,54.5776951956491,0 -1.187061032211497,54.57776782940051,0 -1.187019999921691,54.57783566141755,0 -1.186944496619041,54.5778844921326,0 -1.186816489356751,54.57790571321565,0 -1.186625106833212,54.57788186949258,0 -1.186417043910931,54.57785698210537,0 -1.186296614530143,54.57784476944281,0 -1.186189490380812,54.57785544835944,0 -1.186109322503406,54.57791863487268,0 -1.186096200696485,54.57798291280001,0 -1.186151716610021,54.57804844375696,0 -1.18624316746476,54.57808744407293,0 -1.18641333812917,54.57809562459051,0 -1.186611563007052,54.57810509844632,0 -1.186767190194479,54.57809793446376,0 -1.186935044300783,54.57808106979865,0 -1.187104091725901,54.57804107661291,0 -1.187273760196075,54.5779559188967,0 -1.187391747954588,54.57789078332176,0 -1.18752818979971,54.57781978453755,0 -1.18761718833658,54.57777689696457,0 -1.187760368137786,54.57775930348523,0 -1.188004635829619,54.57775239375502,0 -1.188265327017216,54.57778077632447,0 -1.188494163406074,54.57780759802067,0 
			</coordinates>
		</LineString>
		<atom:link rel="app" href="https://www.google.com/earth/about/versions/#earth-pro" title="Google Earth Pro 7.3.7.1327"></atom:link>
	</Placemark>
</Document>
</kml>
